[{"OBJECT_NAME":"COSMOS 2538","OBJECT_ID":"2019-039D","EPOCH":"2026-03-09T23:22:28.343424","MEAN_MOTION":15.19536029,"ECCENTRICITY":0.00437345,"INCLINATION":97.5929,"RA_OF_ASC_NODE":147.7512,"ARG_OF_PERICENTER":31.8471,"MEAN_ANOMALY":328.5393,"EPHEMERIS_TYPE":0,"CLASSIFICATION_TYPE":"U","NORAD_CAT_ID":44424,"ELEMENT_SET_NO":999,"REV_AT_EPOCH":36483,"BSTAR":0.00035711669,"MEAN_MOTION_DOT":7.713e-5,"MEAN_MOTION_DDOT":0},{"OBJECT_NAME":"STARLINK-5424","OBJECT_ID":"2022-175BF","EPOCH":"2026-03-09T06:12:47.378880","MEAN_MOTION":15.08863318,"ECCENTRICITY":0.00012769,"INCLINATION":53.2194,"RA_OF_ASC_NODE":26.1027,"ARG_OF_PERICENTER":93.2399,"MEAN_ANOMALY":266.874,"EPHEMERIS_TYPE":0,"CLASSIFICATION_TYPE":"U","NORAD_CAT_ID":54811,"ELEMENT_SET_NO":999,"REV_AT_EPOCH":18013,"BSTAR":0.00077622341,"MEAN_MOTION_DOT":0.00012095,"MEAN_MOTION_DDOT":0}]
